{
  "type": "FeatureCollection",
  "features": [
    {
      "type": "Feature",
      "properties": {
        "norad_id": 34314,
        "name": "COSMOS 2251 DEB",
        "group": "cosmos-2251-debris",
        "lat": -69.41826376457075,
        "lon": 176.92215316679054,
        "alt_km": 908.4684306735198,
        "timestamp": "2025-12-13T10:41:26.160127+00:00",
        "meta_object_name": "COSMOS 2251 DEB",
        "meta_object_id": "1993-036NL",
        "meta_epoch": "2025-12-12T23:37:30.547776",
        "meta_mean_motion": 14.17425347,
        "meta_eccentricity": 0.0102801,
        "meta_inclination": 74.0065,
        "meta_ra_of_asc_node": 307.9468,
        "meta_arg_of_pericenter": 53.5302,
        "meta_mean_anomaly": 12.0728,
        "meta_ephemeris_type": 0,
        "meta_classification_type": "U",
        "meta_norad_cat_id": 34314,
        "meta_element_set_no": 999,
        "meta_rev_at_epoch": 86661,
        "meta_bstar": 0.0008395155,
        "meta_mean_motion_dot": 1.767e-05,
        "meta_mean_motion_ddot": 0,
        "tle_line1": "1 34314U 93036NL  25346.98438134  .00001767  00000+0  83952-3 0  9996",
        "tle_line2": "2 34314  74.0065 307.9468 0102801  53.5302  12.0728 14.17425347866611"
      },
      "geometry": {
        "type": "Point",
        "coordinates": [
          176.92215316679054,
          -69.41826376457075
        ]
      }
    },
    {
      "type": "Feature",
      "properties": {
        "norad_id": 34316,
        "name": "COSMOS 2251 DEB",
        "group": "cosmos-2251-debris",
        "lat": -72.37940463561578,
        "lon": -88.62609996403246,
        "alt_km": 603.6322038548433,
        "timestamp": "2025-12-13T10:41:26.160138+00:00",
        "meta_object_name": "COSMOS 2251 DEB",
        "meta_object_id": "1993-036NN",
        "meta_epoch": "2025-12-12T23:47:36.998880",
        "meta_mean_motion": 14.91843208,
        "meta_eccentricity": 0.0008307,
        "meta_inclination": 74.0648,
        "meta_ra_of_asc_node": 336.3845,
        "meta_arg_of_pericenter": 60.6383,
        "meta_mean_anomaly": 299.5628,
        "meta_ephemeris_type": 0,
        "meta_classification_type": "U",
        "meta_norad_cat_id": 34316,
        "meta_element_set_no": 999,
        "meta_rev_at_epoch": 89213,
        "meta_bstar": 0.0022319894,
        "meta_mean_motion_dot": 0.00022593,
        "meta_mean_motion_ddot": 0,
        "tle_line1": "1 34316U 93036NN  25346.99140045  .00022593  00000+0  22320-2 0  9991",
        "tle_line2": "2 34316  74.0648 336.3845 0008307  60.6383 299.5628 14.91843208892138"
      },
      "geometry": {
        "type": "Point",
        "coordinates": [
          -88.62609996403246,
          -72.37940463561578
        ]
      }
    },
    {
      "type": "Feature",
      "properties": {
        "norad_id": 34317,
        "name": "COSMOS 2251 DEB",
        "group": "cosmos-2251-debris",
        "lat": 59.91023284195426,
        "lon": 64.43965639126701,
        "alt_km": 818.3568863015735,
        "timestamp": "2025-12-13T10:41:26.160148+00:00",
        "meta_object_name": "COSMOS 2251 DEB",
        "meta_object_id": "1993-036NP",
        "meta_epoch": "2025-12-12T21:11:35.038752",
        "meta_mean_motion": 13.65121792,
        "meta_eccentricity": 0.03365272,
        "meta_inclination": 73.9247,
        "meta_ra_of_asc_node": 35.5223,
        "meta_arg_of_pericenter": 24.7548,
        "meta_mean_anomaly": 154.2185,
        "meta_ephemeris_type": 0,
        "meta_classification_type": "U",
        "meta_norad_cat_id": 34317,
        "meta_element_set_no": 999,
        "meta_rev_at_epoch": 83621,
        "meta_bstar": 0.0005210361,
        "meta_mean_motion_dot": 6e-06,
        "meta_mean_motion_ddot": 0,
        "tle_line1": "1 34317U 93036NP  25346.88304443  .00000600  00000+0  52104-3 0  9993",
        "tle_line2": "2 34317  73.9247  35.5223 0336527  24.7548 154.2185 13.65121792836211"
      },
      "geometry": {
        "type": "Point",
        "coordinates": [
          64.43965639126701,
          59.91023284195426
        ]
      }
    },
    {
      "type": "Feature",
      "properties": {
        "norad_id": 34321,
        "name": "COSMOS 2251 DEB",
        "group": "cosmos-2251-debris",
        "lat": -37.413186419038965,
        "lon": 142.38123494096166,
        "alt_km": 722.424099816636,
        "timestamp": "2025-12-13T10:41:26.160158+00:00",
        "meta_object_name": "COSMOS 2251 DEB",
        "meta_object_id": "1993-036NT",
        "meta_epoch": "2025-12-12T22:20:03.573888",
        "meta_mean_motion": 14.50057424,
        "meta_eccentricity": 0.00158319,
        "meta_inclination": 74.028,
        "meta_ra_of_asc_node": 156.003,
        "meta_arg_of_pericenter": 285.5706,
        "meta_mean_anomaly": 228.7156,
        "meta_ephemeris_type": 0,
        "meta_classification_type": "U",
        "meta_norad_cat_id": 34321,
        "meta_element_set_no": 999,
        "meta_rev_at_epoch": 88489,
        "meta_bstar": 0.00091991308,
        "meta_mean_motion_dot": 3.547e-05,
        "meta_mean_motion_ddot": 0,
        "tle_line1": "1 34321U 93036NT  25346.93059692  .00003547  00000+0  91991-3 0  9997",
        "tle_line2": "2 34321  74.0280 156.0030 0015831 285.5706 228.7156 14.50057424884892"
      },
      "geometry": {
        "type": "Point",
        "coordinates": [
          142.38123494096166,
          -37.413186419038965
        ]
      }
    },
    {
      "type": "Feature",
      "properties": {
        "norad_id": 34323,
        "name": "COSMOS 2251 DEB",
        "group": "cosmos-2251-debris",
        "lat": 35.78013545260852,
        "lon": 133.70196445790162,
        "alt_km": 669.5287803261253,
        "timestamp": "2025-12-13T10:41:26.160168+00:00",
        "meta_object_name": "COSMOS 2251 DEB",
        "meta_object_id": "1993-036NV",
        "meta_epoch": "2025-12-12T12:04:33.774816",
        "meta_mean_motion": 14.74422537,
        "meta_eccentricity": 0.00590921,
        "meta_inclination": 73.9524,
        "meta_ra_of_asc_node": 123.5779,
        "meta_arg_of_pericenter": 167.7874,
        "meta_mean_anomaly": 270.7864,
        "meta_ephemeris_type": 0,
        "meta_classification_type": "U",
        "meta_norad_cat_id": 34323,
        "meta_element_set_no": 999,
        "meta_rev_at_epoch": 88436,
        "meta_bstar": 0.003759112,
        "meta_mean_motion_dot": 0.00025728,
        "meta_mean_motion_ddot": 0,
        "tle_line1": "1 34323U 93036NV  25346.50316869  .00025728  00000+0  37591-2 0  9994",
        "tle_line2": "2 34323  73.9524 123.5779 0059092 167.7874 270.7864 14.74422537884368"
      },
      "geometry": {
        "type": "Point",
        "coordinates": [
          133.70196445790162,
          35.78013545260852
        ]
      }
    },
    {
      "type": "Feature",
      "properties": {
        "norad_id": 34325,
        "name": "COSMOS 2251 DEB",
        "group": "cosmos-2251-debris",
        "lat": 67.26959957737492,
        "lon": -124.74999411062076,
        "alt_km": 968.5657522392239,
        "timestamp": "2025-12-13T10:41:26.160178+00:00",
        "meta_object_name": "COSMOS 2251 DEB",
        "meta_object_id": "1993-036NX",
        "meta_epoch": "2025-12-13T00:48:28.607616",
        "meta_mean_motion": 14.04475528,
        "meta_eccentricity": 0.01921961,
        "meta_inclination": 73.8713,
        "meta_ra_of_asc_node": 192.2892,
        "meta_arg_of_pericenter": 209.5408,
        "meta_mean_anomaly": 304.6464,
        "meta_ephemeris_type": 0,
        "meta_classification_type": "U",
        "meta_norad_cat_id": 34325,
        "meta_element_set_no": 999,
        "meta_rev_at_epoch": 85519,
        "meta_bstar": 0.002545086,
        "meta_mean_motion_dot": 4.762e-05,
        "meta_mean_motion_ddot": 0,
        "tle_line1": "1 34325U 93036NX  25347.03366444  .00004762  00000+0  25451-2 0  9996",
        "tle_line2": "2 34325  73.8713 192.2892 0192196 209.5408 304.6464 14.04475528855192"
      },
      "geometry": {
        "type": "Point",
        "coordinates": [
          -124.74999411062076,
          67.26959957737492
        ]
      }
    },
    {
      "type": "Feature",
      "properties": {
        "norad_id": 34327,
        "name": "COSMOS 2251 DEB",
        "group": "cosmos-2251-debris",
        "lat": 67.46081562396887,
        "lon": -53.292337932761306,
        "alt_km": 604.6742435830411,
        "timestamp": "2025-12-13T10:41:26.160187+00:00",
        "meta_object_name": "COSMOS 2251 DEB",
        "meta_object_id": "1993-036NZ",
        "meta_epoch": "2025-12-12T23:30:12.435840",
        "meta_mean_motion": 14.89191333,
        "meta_eccentricity": 0.00328335,
        "meta_inclination": 73.994,
        "meta_ra_of_asc_node": 171.4036,
        "meta_arg_of_pericenter": 347.7124,
        "meta_mean_anomaly": 140.0703,
        "meta_ephemeris_type": 0,
        "meta_classification_type": "U",
        "meta_norad_cat_id": 34327,
        "meta_element_set_no": 999,
        "meta_rev_at_epoch": 89511,
        "meta_bstar": 0.001696839,
        "meta_mean_motion_dot": 0.00016204,
        "meta_mean_motion_ddot": 0,
        "tle_line1": "1 34327U 93036NZ  25346.97931060  .00016204  00000+0  16968-2 0  9999",
        "tle_line2": "2 34327  73.9940 171.4036 0032833 347.7124 140.0703 14.89191333895113"
      },
      "geometry": {
        "type": "Point",
        "coordinates": [
          -53.292337932761306,
          67.46081562396887
        ]
      }
    }
  ]
}